[{"OBJECT_NAME":"STARLINK-36440","OBJECT_ID":"2026-008C","EPOCH":"2026-03-09T09:51:38.257344","MEAN_MOTION":15.27607504,"ECCENTRICITY":0.00030507,"INCLINATION":42.9977,"RA_OF_ASC_NODE":206.4372,"ARG_OF_PERICENTER":295.2716,"MEAN_ANOMALY":64.7819,"EPHEMERIS_TYPE":0,"CLASSIFICATION_TYPE":"U","NORAD_CAT_ID":67447,"ELEMENT_SET_NO":999,"REV_AT_EPOCH":953,"BSTAR":0.0013657814,"MEAN_MOTION_DOT":0.00037547,"MEAN_MOTION_DDOT":0},{"OBJECT_NAME":"CZ-6A DEB","OBJECT_ID":"2022-151ADD","EPOCH":"2026-03-09T18:20:47.462208","MEAN_MOTION":15.20298953,"ECCENTRICITY":0.00285544,"INCLINATION":98.6309,"RA_OF_ASC_NODE":152.6578,"ARG_OF_PERICENTER":173.2603,"MEAN_ANOMALY":186.9019,"EPHEMERIS_TYPE":0,"CLASSIFICATION_TYPE":"U","NORAD_CAT_ID":56285,"ELEMENT_SET_NO":999,"REV_AT_EPOCH":17182,"BSTAR":0.0066325049,"MEAN_MOTION_DOT":0.00148374,"MEAN_MOTION_DDOT":0}]
